STARLINK-6040           
1 56809U 23078AU  26071.15753105  .00000512  00000+0  50671-4 0  9991
2 56809  70.0006 338.0852 0002707 272.5243  87.5606 14.98327574153059
STARLINK-6031           
1 56810U 23078AV  26071.10746540  .00000055  00000+0  12361-4 0  9999
2 56810  70.0011 338.3115 0002512 267.9877  92.0994 14.98328983153042
STARLINK-6063           
1 56811U 23078AW  26071.25138938  .00034944  00000+0  44961-3 0  9996
2 56811  70.0006 288.6135 0003514 256.0234 104.0566 15.58893897154289
STARLINK-6065           
1 56812U 23078AX  26071.07401286  .00000033  00000+0  10538-4 0  9992
2 56812  69.9999 318.3294 0002751 267.6026  92.4818 14.98329648153532
STARLINK-6056           
1 56813U 23078AY  26071.15353632  .00000879  00000+0  81436-4 0  9996
2 56813  70.0000 338.0705 0002816 261.2891  98.7949 14.98324787153057
STARLINK-6059           
1 56814U 23078AZ  26071.16170733 -.00000111  00000+0 -15260-5 0  9991
2 56814  70.0008 338.0994 0002790 270.4449  89.6390 14.98326091153057
STARLINK-6067           
1 56816U 23078BB  26071.06132528  .00000646  00000+0  61918-4 0  9993
2 56816  69.9999 318.2800 0002888 268.5438  91.5390 14.98329355153536
STARLINK-6028           
1 56818U 23078BD  26071.08659378  .00001073  00000+0  97653-4 0  9994
2 56818  70.0027 338.2377 0002053 274.3608  85.7316 14.98335281153732
STARLINK-30119          
1 56823U 23079A   26071.25001157  .01152460  00000+0  44525-1 0  9991
2 56823  43.0006  92.4520 0002229 273.0424   6.9245 15.22793885  5773
STARLINK-30120          
1 56824U 23079B   26071.25001157  .01189648  00000+0  47313-1 0  9998
2 56824  43.0001  92.5925 0001395 244.7017 335.4269 15.21711222  5731
STARLINK-30084          
1 56825U 23079C   26071.25001157  .00031667  00000+0  11865-2 0  9999
2 56825  42.9996  91.8687 0000715 244.8313 284.1122 15.26703667  5732
STARLINK-30114          
1 56826U 23079D   26071.25001157  .00846212  00000+0  31553-1 0  9995
2 56826  43.0029  92.3159 0001549 280.8992 339.4413 15.24377616  5782
STARLINK-30151          
1 56827U 23079E   26071.25001157  .01200657  00000+0  48303-1 0  9995
2 56827  43.0006  92.4426 0002124 270.0056  11.2008 15.21292938  5783
STARLINK-30152          
1 56828U 23079F   26071.25001157  .01164934  00000+0  44494-1 0  9990
2 56828  43.0000  92.2395 0001923 281.6772  87.4560 15.23150119  5571
STARLINK-30128          
1 56832U 23079K   26071.25001157  .01284323  00000+0  53115-1 0  9990
2 56832  43.0000  66.6170 0002031 292.1303 101.1798 15.20132320  5589
STARLINK-30131          
1 56833U 23079L   26071.25001157 -.00001422  00000+0 -52169-4 0  9990
2 56833  43.0017  66.5886 0001205 273.2570 200.4067 15.20963853  5786
STARLINK-30069          
1 56834U 23079M   26071.34153514  .00053114  00000+0  19490-2 0  9997
2 56834  43.0036  88.6728 0002057 287.3821  72.6805 15.27185597153331
STARLINK-30144          
1 56835U 23079N   26071.01797362  .00009689  00000+0  36502-3 0  9999
2 56835  42.9957  90.5464 0000559 241.1680 118.9115 15.27226005153289
STARLINK-30142          
1 56836U 23079P   26071.15709216 -.00000506  00000+0 -88718-5 0  9995
2 56836  42.9996  89.8667 0001390 197.1330 162.9475 15.27585646153305
STARLINK-30133          
1 56837U 23079Q   26071.25001157  .01331336  00000+0  47353-1 0  9999
2 56837  43.0003  91.8918 0000991 206.1548 305.3885 15.25624265  5771
STARLINK-30123          
1 56838U 23079R   26071.22327312 -.00001355  00000+0 -39757-4 0  9999
2 56838  43.0044  19.6297 0000805 270.5160  89.5599 15.27565956154135
STARLINK-30076          
1 56839U 23079S   26071.25001157  .01274163  00000+0  51617-1 0  9993
2 56839  43.0004  92.3070 0001846 272.9657  60.3392 15.20869169  5524
STARLINK-30073          
1 56840U 23079T   26071.25001157 -.00012721  00000+0 -45351-3 0  9996
2 56840  43.0012 277.9127 0001956 270.4643 145.5884 15.27578818  5841
STARLINK-30078          
1 56841U 23079U   26071.27393147  .00000325  00000+0  21347-4 0  9997
2 56841  43.0013  44.7700 0001198 273.3175  86.7539 15.27582674153842
STARLINK-30135          
1 56842U 23079V   26071.25001157  .01307553  00000+0  50752-1 0  9996
2 56842  43.0000  92.5155 0001618 226.0624 345.5443 15.22736001  5784
STARLINK-30137          
1 56843U 23079W   26071.25001157  .00866287  00000+0  32266-1 0  9990
2 56843  43.0028  92.1952 0001532 278.3031  69.7873 15.24356422  5782
STARLINK-30136          
1 56844U 23079X   26071.25001157  .00608673  00000+0  24503-1 0  9999
2 56844  43.0033  92.4007 0001723 277.8826 340.8275 15.21794645  5735
2023-081A               
1 56846U 23081A   26071.25333549  .00005063  00000+0  22328-3 0  9996
2 56846  97.3784 143.1466 0001731 111.4461 248.6960 15.22229179153266
2023-081W               
1 56866U 23081W   26071.31502819  .00008169  00000+0  34339-3 0  9998
2 56866  97.3004 137.4223 0010498   1.5981 358.5288 15.23623146153274
LONGJIANG 3             
1 56874U 23082A   26071.32024544  .00032484  00000+0  85401-3 0  9996
2 56874  49.1071 184.0763 0007091 315.0709  44.9665 15.38198420154437
STARLINK-6206           
1 56876U 23083A   26071.00197767 -.00000304  00000+0 -74575-5 0  9992
2 56876  43.0031  69.6079 0001373 271.6742  88.3943 15.02533549152016
STARLINK-6209           
1 56877U 23083B   26070.86106326  .00015314  00000+0  11416-2 0  9994
2 56877  43.0033  70.2680 0004569 160.5731 199.5286 15.02683731151999
STARLINK-6182           
1 56878U 23083C   26070.00369883  .00000546  00000+0  55503-4 0  9998
2 56878  43.0031  75.0172 0001269 264.3426  95.7271 15.02536073151868
STARLINK-5707           
1 56879U 23083D   26070.39923306  .00000981  00000+0  87669-4 0  9998
2 56879  43.0035  72.8258 0001402 267.9800  92.0882 15.02534838151929
STARLINK-6177           
1 56880U 23083E   26070.98088477  .00000031  00000+0  17346-4 0  9997
2 56880  43.0017  69.4500 0000964 266.8000  93.2732 15.02535128152016
STARLINK-5853           
1 56881U 23083F   26071.26123147 -.00000782  00000+0 -42851-4 0  9998
2 56881  43.0029  68.1102 0000885 249.6366 110.4381 15.02530544152053
STARLINK-6175           
1 56882U 23083G   26071.31425744  .00017079  00000+0  12717-2 0  9994
2 56882  43.0051  67.6521 0000562  14.4908 345.5951 15.02673356152064
STARLINK-6171           
1 56883U 23083H   26071.25741831  .00049112  00000+0  35856-2 0  9998
2 56883  43.0018  68.0784 0001280 279.8242  80.2456 15.02951083152058
STARLINK-5515           
1 56884U 23083J   26071.24058136  .00070947  00000+0  51336-2 0  9998
2 56884  43.0037  67.9544 0001199 225.4244 134.6501 15.03122278152052
STARLINK-5095           
1 56885U 23083K   26071.25309723  .00123753  00000+0  87552-2 0  9994
2 56885  43.0018  68.0484 0001174 257.3957 102.6754 15.03639098152053
STARLINK-5496           
1 56886U 23083L   26070.37511263  .00079432  00000+0  57283-2 0  9993
2 56886  43.0000  72.6414 0001342 253.9965 106.0730 15.03191973151929
STARLINK-6180           
1 56887U 23083M   26071.31105506  .00000279  00000+0  35730-4 0  9996
2 56887  43.0041  67.6212 0001285 267.2663  92.8032 15.02536470152061
STARLINK-6181           
1 56888U 23083N   26071.02740332  .00001379  00000+0  11715-3 0  9995
2 56888  43.0031  68.9342 0001170 269.1605  90.9103 15.02535025152028
STARLINK-6169           
1 56889U 23083P   26071.30328894  .00000782  00000+0  72961-4 0  9990
2 56889  43.0021  67.5622 0000583 266.9953  93.0822 15.02522999152064
STARLINK-5528           
1 56890U 23083Q   26070.69610477 -.00000729  00000+0 -38912-4 0  9995
2 56890  43.0033  70.7494 0000817 285.6676  74.4076 15.02537473151978
STARLINK-6213           
1 56891U 23083R   26070.70143392  .00027080  00000+0  20005-2 0  9994
2 56891  43.0040  70.7870 0001606 256.6811 103.3853 15.02751991151979
STARLINK-6219           
1 56892U 23083S   26071.28663704  .00000192  00000+0  29266-4 0  9998
2 56892  43.0032  67.4376 0001238 270.3394  89.7307 15.02535005152063
STARLINK-6216           
1 56893U 23083T   26070.36596514 -.00002699  00000+0 -18497-3 0  9990
2 56893  43.0040  72.5741 0001189 266.5286  93.5421 15.02510116152042
STARLINK-6144           
1 56894U 23083U   26071.28773563  .00003243  00000+0  25481-3 0  9999
2 56894  43.0037  67.4477 0001282 284.0082  76.0617 15.02564694152189
STARLINK-6208           
1 56895U 23083V   26071.01850596 -.00000600  00000+0 -29312-4 0  9997
2 56895  43.0041  68.8687 0001469 268.6146  91.4528 15.02537670152028
STARLINK-6202           
1 56896U 23083W   26070.68167594  .00000388  00000+0  43822-4 0  9992
2 56896  43.0044  70.6399 0001173 271.9336  88.1372 15.02536365152089
STARLINK-6200           
1 56897U 23083X   26071.28330589  .00000414  00000+0  45746-4 0  9993
2 56897  43.0031  67.4097 0001165 272.1342  87.9367 15.02535162152182
STARLINK-6205           
1 56898U 23083Y   26071.25001157  .00072246  00000+0  36005-2 0  9995
2 56898  43.0005  66.7417 0000669 304.5504 238.4215 15.16658116  5777
STARLINK-6203           
1 56899U 23083Z   26071.25001157  .01280225  00000+0  52696-1 0  9998
2 56899  43.0000  66.6450 0001606 240.8454 341.4127 15.20789387  5673
STARLINK-6207           
1 56900U 23083AA  26071.25001157  .00046056  00000+0  26927-2 0  9991
2 56900  43.0011  55.0981 0001598 268.5592  64.9784 15.11172152  5671
STARLINK-6185           
1 56901U 23083AB  26071.25001157  .00070478  00000+0  34851-2 0  9992
2 56901  43.0001  66.6956 0000807 299.0810 262.5316 15.16941843  5779
STARLINK-6195           
1 56902U 23083AC  26071.25001157  .00048068  00000+0  29238-2 0  9996
2 56902  43.0005  55.1498 0001705 248.6539  62.9282 15.09720741  5671
STARLINK-6192           
1 56903U 23083AD  26071.25001157  .01328493  00000+0  57843-1 0  9993
2 56903  43.0011  66.7997 0000934 310.0359 207.0545 15.18741779  5777
STARLINK-6193           
1 56904U 23083AE  26071.25001157  .00041059  00000+0  25053-2 0  9992
2 56904  42.9996  54.8503 0001587 273.5890 160.7674 15.09670812  5628
